$$SOE
2460728.500000000, A.D. 2025-Feb-22 00:00:00.0000, 7.207318559639849E+06, 2.631162263092373E+08, 1.070549512289350E+07,
2460735.500000000, A.D. 2025-Mar-01 00:00:00.0000, -5.767174518229266E+06, 2.624395001332928E+08, 1.599139765472743E+07,
2460742.500000000, A.D. 2025-Mar-08 00:00:00.0000, -1.872621734127033E+07, 2.610626389418175E+08, 2.123461401206511E+07,
2460749.500000000, A.D. 2025-Mar-15 00:00:00.0000, -3.163500464847653E+07, 2.589861617968687E+08, 2.642089734517103E+07,
2460756.500000000, A.D. 2025-Mar-22 00:00:00.0000, -4.445859945397609E+07, 2.562128711041875E+08, 3.153606505796590E+07,
2460763.500000000, A.D. 2025-Mar-29 00:00:00.0000, -5.716208696520326E+07, 2.527478716493669E+08, 3.656606260446809E+07,
2460770.500000000, A.D. 2025-Apr-05 00:00:00.0000, -6.971072994069108E+07, 2.485985756533651E+08, 4.149702771177228E+07,
2460777.500000000, A.D. 2025-Apr-12 00:00:00.0000, -8.207012589876063E+07, 2.437746935135377E+08, 4.631535457520218E+07,
2460784.500000000, A.D. 2025-Apr-19 00:00:00.0000, -9.420636479350699E+07, 2.382882091051577E+08, 5.100775731419609E+07,
2460791.500000000, A.D. 2025-Apr-26 00:00:00.0000, -1.060861852847801E+08, 2.321533394275821E+08, 5.556133198836005E+07,
2460798.500000000, A.D. 2025-May-03 00:00:00.0000, -1.176771278810696E+08, 2.253864788343457E+08, 5.996361651629168E+07,
2460805.500000000, A.D. 2025-May-10 00:00:00.0000, -1.289476833460260E+08, 2.180061283047559E+08, 6.420264787010063E+07,
2460812.500000000, A.D. 2025-May-17 00:00:00.0000, -1.398674348103629E+08, 2.100328103862767E+08, 6.826701594970338E+07,
2460819.500000000, A.D. 2025-May-24 00:00:00.0000, -1.504071919835146E+08, 2.014889706320961E+08, 7.214591357492849E+07,
2460826.500000000, A.D. 2025-May-31 00:00:00.0000, -1.605391157341261E+08, 1.923988669136130E+08, 7.582918209900078E+07,
2460833.500000000, A.D. 2025-Jun-07 00:00:00.0000, -1.702368322745392E+08, 1.827884490494291E+08, 7.930735236353332E+07,
2460840.500000000, A.D. 2025-Jun-14 00:00:00.0000, -1.794755383194324E+08, 1.726852294709793E+08, 8.257168082293433E+07,
2460847.500000000, A.D. 2025-Jun-21 00:00:00.0000, -1.882320951720121E+08, 1.621181431573181E+08, 8.561418020324671E+07,
2460854.500000000, A.D. 2025-Jun-28 00:00:00.0000, -1.964851079585639E+08, 1.511174001574926E+08, 8.842764436265513E+07,
2460861.500000000, A.D. 2025-Jul-05 00:00:00.0000, -2.042149911117087E+08, 1.397143344598520E+08, 9.100566757428393E+07,
2460868.500000000, A.D. 2025-Jul-12 00:00:00.0000, -2.114040210749724E+08, 1.279412500480461E+08, 9.334265827515116E+07,
2460875.500000000, A.D. 2025-Jul-19 00:00:00.0000, -2.180363759974100E+08, 1.158312651864709E+08, 9.543384728688471E+07,
2460882.500000000, A.D. 2025-Jul-26 00:00:00.0000, -2.240981623558498E+08, 1.034181564394763E+08, 9.727529062518975E+07,
2460889.500000000, A.D. 2025-Aug-02 00:00:00.0000, -2.295774287647987E+08, 9.073620393292458E+07, 9.886386710386357E+07,
2460896.500000000, A.D. 2025-Aug-09 00:00:00.0000, -2.344641674346744E+08, 7.782003923374763E+07, 1.001972710006271E+08,
2460903.500000000, A.D. 2025-Aug-16 00:00:00.0000, -2.387503038243408E+08, 6.470449705761008E+07, 1.012740000942453E+08,
2460910.500000000, A.D. 2025-Aug-23 00:00:00.0000, -2.424296749358750E+08, 5.142447196196838E+07, 1.020933394104649E+08,
2460917.500000000, A.D. 2025-Aug-30 00:00:00.0000, -2.454979967583218E+08, 3.801478173531789E+07, 1.026553410991140E+08,
2460924.500000000, A.D. 2025-Sep-06 00:00:00.0000, -2.479528231886955E+08, 2.451003932720301E+07, 1.029608010705995E+08,
2460931.500000000, A.D. 2025-Sep-13 00:00:00.0000, -2.497934990700668E+08, 1.094453152625762E+07, 1.030112327766985E+08,
2460938.500000000, A.D. 2025-Sep-20 00:00:00.0000, -2.510211050761931E+08, -2.647896711957648E+06, 1.028088381449308E+08,
2460945.500000000, A.D. 2025-Sep-27 00:00:00.0000, -2.516383943819192E+08, -1.623394877167883E+07, 1.023564762536081E+08,
2460952.500000000, A.D. 2025-Oct-04 00:00:00.0000, -2.516497241223809E+08, -2.978097292956394E+07, 1.016576303887504E+08,
2460959.500000000, A.D. 2025-Oct-11 00:00:00.0000, -2.510609829953546E+08, -4.325704978418967E+07, 1.007163738489460E+08,
2460966.500000000, A.D. 2025-Oct-18 00:00:00.0000, -2.498795156721693E+08, -5.663107083426632E+07, 9.953733484431571E+07,
2460973.500000000, A.D. 2025-Oct-25 00:00:00.0000, -2.481140447731984E+08, -6.987280829574898E+07, 9.812566084290579E+07,
2460980.500000000, A.D. 2025-Nov-01 00:00:00.0000, -2.457745912064973E+08, -8.295297633937924E+07, 9.648698269717762E+07,
2460987.500000000, A.D. 2025-Nov-08 00:00:00.0000, -2.428723936116853E+08, -9.584328405585326E+07, 9.462737884886047E+07,
2460994.500000000, A.D. 2025-Nov-15 00:00:00.0000, -2.394198274687148E+08, -1.085164805451359E+08, 9.255333986156732E+07,
2461001.500000000, A.D. 2025-Nov-22 00:00:00.0000, -2.354303240980329E+08, -1.209463922995795E+08, 9.027173348897982E+07,
2461008.500000000, A.D. 2025-Nov-29 00:00:00.0000, -2.309182902511520E+08, -1.331079521844640E+08, 8.778977057429937E+07,
2461015.500000000, A.D. 2025-Dec-06 00:00:00.0000, -2.258990310388988E+08, -1.449772206373367E+08, 8.511497214341798E+07,
2461022.500000000, A.D. 2025-Dec-13 00:00:00.0000, -2.203886761774682E+08, -1.565314029754403E+08, 8.225513753101213E+07,
2461029.500000000, A.D. 2025-Dec-20 00:00:00.0000, -2.144041064266462E+08, -1.677488623123477E+08, 7.921831344294167E+07,
2461036.500000000, A.D. 2025-Dec-27 00:00:00.0000, -2.079628816023566E+08, -1.786091260002158E+08, 7.601276437296703E+07,
2461043.500000000, A.D. 2026-Jan-03 00:00:00.0000, -2.010831718606142E+08, -1.890928867053369E+08, 7.264694452564587E+07,
2461050.500000000, A.D. 2026-Jan-10 00:00:00.0000, -1.937836923143533E+08, -1.991819992818748E+08, 6.912947121778738E+07,
2461057.500000000, A.D. 2026-Jan-17 00:00:00.0000, -1.860836408697951E+08, -2.088594740160901E+08, 6.546909975029773E+07,
2461064.500000000, A.D. 2026-Jan-24 00:00:00.0000, -1.780026392828741E+08, -2.181094666826648E+08, 6.167469975297138E+07,
2461071.500000000, A.D. 2026-Jan-31 00:00:00.0000, -1.695606774516322E+08, -2.269172658596509E+08, 5.775523299245032E+07,
2461078.500000000, A.D. 2026-Feb-07 00:00:00.0000, -1.607780608852913E+08, -2.352692779726203E+08, 5.371973261177578E+07,
2461085.500000000, A.D. 2026-Feb-14 00:00:00.0000, -1.516753610675737E+08, -2.431530104709598E+08, 4.957728374454131E+07,
2461092.500000000, A.D. 2026-Feb-21 00:00:00.0000, -1.422733682711740E+08, -2.505570529199579E+08, 4.533700547362337E+07,
2461099.500000000, A.D. 2026-Feb-28 00:00:00.0000, -1.325930478298331E+08, -2.574710551868570E+08, 4.100803427857087E+07,
2461106.500000000, A.D. 2026-Mar-07 00:00:00.0000, -1.226555018272786E+08, -2.638857049742880E+08, 3.659950894469947E+07,
2461113.500000000, A.D. 2026-Mar-14 00:00:00.0000, -1.124819333129455E+08, -2.697927073147897E+08, 3.212055642856123E+07,
2461120.500000000, A.D. 2026-Mar-21 00:00:00.0000, -1.020936111385578E+08, -2.751847633861730E+08, 2.758027869062656E+07,
2461127.500000000, A.D. 2026-Mar-28 00:00:00.0000, -9.151183729316501E+07, -2.800555478484398E+08, 2.298774069773102E+07,
2461134.500000000, A.D. 2026-Apr-04 00:00:00.0000, -8.075791720060121E+07, -2.843996858702677E+08, 1.835195950333858E+07,
2461141.500000000, A.D. 2026-Apr-11 00:00:00.0000, -6.985313255997297E+07, -2.882127303820990E+08, 1.368189428123888E+07,
2461148.500000000, A.D. 2026-Apr-18 00:00:00.0000, -5.881871641834943E+07, -2.914911397167618E+08, 8.986437227192506E+06,
2461155.500000000, A.D. 2026-Apr-25 00:00:00.0000, -4.767583027407687E+07, -2.942322557607237E+08, 4.274405256396115E+06,
2461162.500000000, A.D. 2026-May-02 00:00:00.0000, -3.644554302607003E+07, -2.964342827697389E+08, -4.454675756083131E+05,
2461169.500000000, A.D. 2026-May-09 00:00:00.0000, -2.514881149460473E+07, -2.980962670218783E+08, -5.164537011506215E+06,
2461176.500000000, A.D. 2026-May-16 00:00:00.0000, -1.380646198753216E+07, -2.992180772578370E+08, -9.874254979161024E+06,
2461183.500000000, A.D. 2026-May-23 00:00:00.0000, -2.439172713273427E+06, -2.998003849586483E+08, -1.456617541266939E+07,
2461190.500000000, A.D. 2026-May-30 00:00:00.0000, 8.932541025148924E+06, -2.998446441987615E+08, -1.923195935390621E+07,
2461197.500000000, A.D. 2026-Jun-06 00:00:00.0000, 2.028833867965086E+07, -2.993530743919883E+08, -2.386337963468538E+07,
2461204.500000000, A.D. 2026-Jun-13 00:00:00.0000, 3.160806715415831E+07, -2.983286457683853E+08, -2.845232551989061E+07,
2461211.500000000, A.D. 2026-Jun-20 00:00:00.0000, 4.287177397785484E+07, -2.967750646849467E+08, -3.299080708521874E+07,
2461218.500000000, A.D. 2026-Jun-27 00:00:00.0000, 5.405971937822469E+07, -2.946967591238450E+08, -3.747095925716016E+07,
2461225.500000000, A.D. 2026-Jul-04 00:00:00.0000, 6.515238737187278E+07, -2.920988651516752E+08, -4.188504562908427E+07,
2461232.500000000, A.D. 2026-Jul-11 00:00:00.0000, 7.613049624486959E+07, -2.889872144585365E+08, -4.622546213201618E+07,
2461239.500000000, A.D. 2026-Jul-18 00:00:00.0000, 8.697500863563412E+07, -2.853683229309532E+08, -5.048474060645293E+07,
2461246.500000000, A.D. 2026-Jul-25 00:00:00.0000, 9.766714136884543E+07, -2.812493802332681E+08, -5.465555231652522E+07,
2461253.500000000, A.D. 2026-Aug-01 00:00:00.0000, 1.081883752142626E+08, -2.766382404264516E+08, -5.873071145811298E+07,
2461260.500000000, A.D. 2026-Aug-08 00:00:00.0000, 1.185204649048004E+08, -2.715434136467684E+08, -6.270317873259252E+07,
2461267.500000000, A.D. 2026-Aug-15 00:00:00.0000, 1.286454499338142E+08, -2.659740583784314E+08, -6.656606503886487E+07,
2461274.500000000, A.D. 2026-Aug-22 00:00:00.0000, 1.385456654604731E+08, -2.599399730708008E+08, -7.031263516182929E+07,
2461281.500000000, A.D. 2026-Aug-29 00:00:00.0000, 1.482037511133005E+08, -2.534515884250948E+08, -7.393631139823662E+07,
2461288.500000000, A.D. 2026-Sep-05 00:00:00.0000, 1.576026599037271E+08, -2.465199631506591E+08, -7.743067757791963E+07,
2461295.500000000, A.D. 2026-Sep-12 00:00:00.0000, 1.667256697940674E+08, -2.391567806180721E+08, -8.078948352477455E+07,
$$EOE